[{"OBJECT_NAME":"GPS BIIF-7  (PRN 09)","OBJECT_ID":"2014-045A","EPOCH":"2026-03-28T06:43:51.050208","MEAN_MOTION":2.00553048,"ECCENTRICITY":0.0031377,"INCLINATION":55.2986,"RA_OF_ASC_NODE":91.6863,"ARG_OF_PERICENTER":119.9296,"MEAN_ANOMALY":240.4172,"EPHEMERIS_TYPE":0,"CLASSIFICATION_TYPE":"U","NORAD_CAT_ID":40105,"ELEMENT_SET_NO":999,"REV_AT_EPOCH":8445,"BSTAR":0,"MEAN_MOTION_DOT":4.1e-7,"MEAN_MOTION_DDOT":0},{"OBJECT_NAME":"GPS BIIF-8  (PRN 03)","OBJECT_ID":"2014-068A","EPOCH":"2026-03-27T15:47:42.451008","MEAN_MOTION":2.00571381,"ECCENTRICITY":0.0063895,"INCLINATION":56.9354,"RA_OF_ASC_NODE":34.096,"ARG_OF_PERICENTER":68.2397,"MEAN_ANOMALY":292.425,"EPHEMERIS_TYPE":0,"CLASSIFICATION_TYPE":"U","NORAD_CAT_ID":40294,"ELEMENT_SET_NO":999,"REV_AT_EPOCH":8357,"BSTAR":0,"MEAN_MOTION_DOT":-7.0e-7,"MEAN_MOTION_DDOT":0},{"OBJECT_NAME":"GPS BIIF-9  (PRN 26)","OBJECT_ID":"2015-013A","EPOCH":"2026-03-27T07:00:33.330816","MEAN_MOTION":2.00556171,"ECCENTRICITY":0.01087923,"INCLINATION":53.181,"RA_OF_ASC_NODE":207.5638,"ARG_OF_PERICENTER":39.9071,"MEAN_ANOMALY":320.8617,"EPHEMERIS_TYPE":0,"CLASSIFICATION_TYPE":"U","NORAD_CAT_ID":40534,"ELEMENT_SET_NO":999,"REV_AT_EPOCH":8018,"BSTAR":0,"MEAN_MOTION_DOT":-2.9e-7,"MEAN_MOTION_DDOT":0},{"OBJECT_NAME":"GPS BIIF-10 (PRN 08)","OBJECT_ID":"2015-033A","EPOCH":"2026-03-28T22:45:00.027072","MEAN_MOTION":2.00560282,"ECCENTRICITY":0.0114869,"INCLINATION":54.0465,"RA_OF_ASC_NODE":270.3923,"ARG_OF_PERICENTER":29.4809,"MEAN_ANOMALY":331.1549,"EPHEMERIS_TYPE":0,"CLASSIFICATION_TYPE":"U","NORAD_CAT_ID":40730,"ELEMENT_SET_NO":999,"REV_AT_EPOCH":7838,"BSTAR":0,"MEAN_MOTION_DOT":-8.0e-8,"MEAN_MOTION_DDOT":0},{"OBJECT_NAME":"GPS BIIF-11 (PRN 10)","OBJECT_ID":"2015-062A","EPOCH":"2026-03-27T12:15:19.111968","MEAN_MOTION":2.00566923,"ECCENTRICITY":0.01113167,"INCLINATION":56.9083,"RA_OF_ASC_NODE":33.9579,"ARG_OF_PERICENTER":231.5995,"MEAN_ANOMALY":127.3861,"EPHEMERIS_TYPE":0,"CLASSIFICATION_TYPE":"U","NORAD_CAT_ID":41019,"ELEMENT_SET_NO":999,"REV_AT_EPOCH":7619,"BSTAR":0,"MEAN_MOTION_DOT":-7.0e-7,"MEAN_MOTION_DDOT":0},{"OBJECT_NAME":"GPS BIIF-12 (PRN 32)","OBJECT_ID":"2016-007A","EPOCH":"2026-03-28T14:15:38.743488","MEAN_MOTION":2.005555,"ECCENTRICITY":0.00958858,"INCLINATION":55.4724,"RA_OF_ASC_NODE":92.6531,"ARG_OF_PERICENTER":246.602,"MEAN_ANOMALY":112.4215,"EPHEMERIS_TYPE":0,"CLASSIFICATION_TYPE":"U","NORAD_CAT_ID":41328,"ELEMENT_SET_NO":999,"REV_AT_EPOCH":7422,"BSTAR":0,"MEAN_MOTION_DOT":4.3e-7,"MEAN_MOTION_DDOT":0},{"OBJECT_NAME":"GPS BIII-1  (PRN 04)","OBJECT_ID":"2018-109A","EPOCH":"2026-03-28T06:20:56.016672","MEAN_MOTION":2.00557717,"ECCENTRICITY":0.0037867,"INCLINATION":55.6315,"RA_OF_ASC_NODE":95.3771,"ARG_OF_PERICENTER":198.7638,"MEAN_ANOMALY":175.851,"EPHEMERIS_TYPE":0,"CLASSIFICATION_TYPE":"U","NORAD_CAT_ID":43873,"ELEMENT_SET_NO":999,"REV_AT_EPOCH":5345,"BSTAR":0,"MEAN_MOTION_DOT":4.5e-7,"MEAN_MOTION_DDOT":0},{"OBJECT_NAME":"GPS BIII-2  (PRN 18)","OBJECT_ID":"2019-056A","EPOCH":"2026-03-27T15:53:36.359232","MEAN_MOTION":2.00568459,"ECCENTRICITY":0.0058566,"INCLINATION":55.6735,"RA_OF_ASC_NODE":334.3842,"ARG_OF_PERICENTER":197.7684,"MEAN_ANOMALY":3.1076,"EPHEMERIS_TYPE":0,"CLASSIFICATION_TYPE":"U","NORAD_CAT_ID":44506,"ELEMENT_SET_NO":999,"REV_AT_EPOCH":4843,"BSTAR":0,"MEAN_MOTION_DOT":-8.4e-7,"MEAN_MOTION_DDOT":0},{"OBJECT_NAME":"GPS BIII-3  (PRN 23)","OBJECT_ID":"2020-041A","EPOCH":"2026-03-28T16:57:19.643904","MEAN_MOTION":2.00560091,"ECCENTRICITY":0.00616586,"INCLINATION":56.6214,"RA_OF_ASC_NODE":32.0661,"ARG_OF_PERICENTER":205.253,"MEAN_ANOMALY":331.039,"EPHEMERIS_TYPE":0,"CLASSIFICATION_TYPE":"U","NORAD_CAT_ID":45854,"ELEMENT_SET_NO":999,"REV_AT_EPOCH":4242,"BSTAR":0,"MEAN_MOTION_DOT":-8.2e-7,"MEAN_MOTION_DDOT":0},{"OBJECT_NAME":"GPS BIII-4  (PRN 14)","OBJECT_ID":"2020-078A","EPOCH":"2026-03-28T23:52:38.890848","MEAN_MOTION":2.00565116,"ECCENTRICITY":0.0069596,"INCLINATION":53.9956,"RA_OF_ASC_NODE":214.0294,"ARG_OF_PERICENTER":204.9521,"MEAN_ANOMALY":153.5047,"EPHEMERIS_TYPE":0,"CLASSIFICATION_TYPE":"U","NORAD_CAT_ID":46826,"ELEMENT_SET_NO":999,"REV_AT_EPOCH":3989,"BSTAR":0,"MEAN_MOTION_DOT":-4.2e-7,"MEAN_MOTION_DDOT":0},{"OBJECT_NAME":"GPS BIII-5  (PRN 11)","OBJECT_ID":"2021-054A","EPOCH":"2026-03-26T22:14:18.259008","MEAN_MOTION":2.00573998,"ECCENTRICITY":0.00238337,"INCLINATION":55.2106,"RA_OF_ASC_NODE":335.7679,"ARG_OF_PERICENTER":231.2619,"MEAN_ANOMALY":258.626,"EPHEMERIS_TYPE":0,"CLASSIFICATION_TYPE":"U","NORAD_CAT_ID":48859,"ELEMENT_SET_NO":999,"REV_AT_EPOCH":3510,"BSTAR":0,"MEAN_MOTION_DOT":-8.6e-7,"MEAN_MOTION_DDOT":0},{"OBJECT_NAME":"GPS BIII-6  (PRN 28)","OBJECT_ID":"2023-009A","EPOCH":"2026-03-28T04:24:38.672352","MEAN_MOTION":2.00547447,"ECCENTRICITY":0.00053805,"INCLINATION":55.1104,"RA_OF_ASC_NODE":151.7031,"ARG_OF_PERICENTER":326.6502,"MEAN_ANOMALY":28.0595,"EPHEMERIS_TYPE":0,"CLASSIFICATION_TYPE":"U","NORAD_CAT_ID":55268,"ELEMENT_SET_NO":999,"REV_AT_EPOCH":2361,"BSTAR":0,"MEAN_MOTION_DOT":0,"MEAN_MOTION_DDOT":0},{"OBJECT_NAME":"GPS BIII-7  (PRN 01)","OBJECT_ID":"2024-242A","EPOCH":"2026-03-25T07:53:27.912192","MEAN_MOTION":2.00569753,"ECCENTRICITY":0.00163589,"INCLINATION":54.8829,"RA_OF_ASC_NODE":337.583,"ARG_OF_PERICENTER":358.994,"MEAN_ANOMALY":177.9462,"EPHEMERIS_TYPE":0,"CLASSIFICATION_TYPE":"U","NORAD_CAT_ID":62339,"ELEMENT_SET_NO":999,"REV_AT_EPOCH":957,"BSTAR":0,"MEAN_MOTION_DOT":-8.5e-7,"MEAN_MOTION_DDOT":0},{"OBJECT_NAME":"GPS BIII-8  (PRN 21)","OBJECT_ID":"2025-116A","EPOCH":"2026-03-28T19:32:01.199328","MEAN_MOTION":2.00551421,"ECCENTRICITY":0.00089667,"INCLINATION":55.1842,"RA_OF_ASC_NODE":34.3646,"ARG_OF_PERICENTER":330.8454,"MEAN_ANOMALY":26.7176,"EPHEMERIS_TYPE":0,"CLASSIFICATION_TYPE":"U","NORAD_CAT_ID":64202,"ELEMENT_SET_NO":999,"REV_AT_EPOCH":625,"BSTAR":0,"MEAN_MOTION_DOT":-8.0e-7,"MEAN_MOTION_DDOT":0},{"OBJECT_NAME":"GPS BIII-9  (PRN 20)","OBJECT_ID":"2026-017A","EPOCH":"2026-03-26T22:23:48.358176","MEAN_MOTION":2.00553557,"ECCENTRICITY":0.0024556,"INCLINATION":55.0345,"RA_OF_ASC_NODE":92.0545,"ARG_OF_PERICENTER":249.5065,"MEAN_ANOMALY":110.2628,"EPHEMERIS_TYPE":0,"CLASSIFICATION_TYPE":"U","NORAD_CAT_ID":67588,"ELEMENT_SET_NO":999,"REV_AT_EPOCH":42996,"BSTAR":0,"MEAN_MOTION_DOT":3.5e-7,"MEAN_MOTION_DDOT":0}]
